{"type": "FeatureCollection", "features": [ {"type": "Feature", "properties": {"norad_id": 36729, "name": "FENGYUN 1C DEB", "group": "fengyun-1c-debris", "lat": -79.55661684452522, "lon": 22.114052008447626, "alt_km": 833.4391352487428, "timestamp": "2025-12-09T23:33:24.143961+00:00", "meta": {"OBJECT_NAME": "FENGYUN 1C DEB", "OBJECT_ID": "1999-025EBB", "EPOCH": "2025-12-05T16:05:18.853440", "MEAN_MOTION": 14.10305503, "ECCENTRICITY": 0.0045345, "INCLINATION": 98.7068, "RA_OF_ASC_NODE": 321.6982, "ARG_OF_PERICENTER": 276.6749, "MEAN_ANOMALY": 82.9262, "EPHEMERIS_TYPE": 0, "CLASSIFICATION_TYPE": "U", "NORAD_CAT_ID": 36729, "ELEMENT_SET_NO": 999, "REV_AT_EPOCH": 87152, "BSTAR": 0.00051397144, "MEAN_MOTION_DOT": 8.78e-06, "MEAN_MOTION_DDOT": 0}, "tle": {"line1": "1 36729U 99025EBB 25339.67035710  .00000878  00000+0  51397-3 0  9993", "line2": "2 36729  98.7068 321.6982 0045345 276.6749  82.9262 14.10305503871524"}}, "geometry": {"type": "Point", "coordinates": [22.114052008447626, -79.55661684452522]}}, {"type": "Feature", "properties": {"norad_id": 36734, "name": "FENGYUN 1C DEB", "group": "fengyun-1c-debris", "lat": -60.60373192073234, "lon": -165.65661100005457, "alt_km": 787.8391973283487, "timestamp": "2025-12-09T23:33:24.143971+00:00", "meta": {"OBJECT_NAME": "FENGYUN 1C DEB", "OBJECT_ID": "1999-025EBG", "EPOCH": "2025-12-09T02:12:52.327584", "MEAN_MOTION": 14.25812368, "ECCENTRICITY": 0.00360244, "INCLINATION": 99.0554, "RA_OF_ASC_NODE": 29.8687, "ARG_OF_PERICENTER": 229.3842, "MEAN_ANOMALY": 130.4202, "EPHEMERIS_TYPE": 0, "CLASSIFICATION_TYPE": "U", "NORAD_CAT_ID": 36734, "ELEMENT_SET_NO": 999, "REV_AT_EPOCH": 82682, "BSTAR": 0.0019663191, "MEAN_MOTION_DOT": 4.662e-05, "MEAN_MOTION_DDOT": 0}, "tle": {"line1": "1 36734U 99025EBG 25343.09227231  .00004662  00000+0  19663-2 0  9995", "line2": "2 36734  99.0554  29.8687 0036024 229.3842 130.4202 14.25812368826820"}}, "geometry": {"type": "Point", "coordinates": [-165.65661100005457, -60.60373192073234]}}, {"type": "Feature", "properties": {"norad_id": 36736, "name": "FENGYUN 1C DEB", "group": "fengyun-1c-debris", "lat": -15.531267182372195, "lon": 59.90007099655841, "alt_km": 853.9821233947796, "timestamp": "2025-12-09T23:33:24.143981+00:00", "meta": {"OBJECT_NAME": "FENGYUN 1C DEB", "OBJECT_ID": "1999-025EBJ", "EPOCH": "2025-12-09T11:50:18.464064", "MEAN_MOTION": 14.25427277, "ECCENTRICITY": 0.00613506, "INCLINATION": 98.8056, "RA_OF_ASC_NODE": 56.941, "ARG_OF_PERICENTER": 149.2788, "MEAN_ANOMALY": 211.2006, "EPHEMERIS_TYPE": 0, "CLASSIFICATION_TYPE": "U", "NORAD_CAT_ID": 36736, "ELEMENT_SET_NO": 999, "REV_AT_EPOCH": 88569, "BSTAR": 0.0026697798, "MEAN_MOTION_DOT": 6.386e-05, "MEAN_MOTION_DDOT": 0}, "tle": {"line1": "1 36736U 99025EBJ 25343.49326926  .00006386  00000+0  26698-2 0  9993", "line2": "2 36736  98.8056  56.9410 0061350 149.2788 211.2006 14.25427277885691"}}, "geometry": {"type": "Point", "coordinates": [59.90007099655841, -15.531267182372195]}}, {"type": "Feature", "properties": {"norad_id": 36743, "name": "FENGYUN 1C DEB", "group": "fengyun-1c-debris", "lat": -21.30565876615849, "lon": 35.67350505388666, "alt_km": 774.8856580492557, "timestamp": "2025-12-09T23:33:24.143991+00:00", "meta": {"OBJECT_NAME": "FENGYUN 1C DEB", "OBJECT_ID": "1999-025EBR", "EPOCH": "2025-12-06T23:24:01.212192", "MEAN_MOTION": 14.29041368, "ECCENTRICITY": 0.00476846, "INCLINATION": 98.6555, "RA_OF_ASC_NODE": 29.2835, "ARG_OF_PERICENTER": 30.1026, "MEAN_ANOMALY": 330.2881, "EPHEMERIS_TYPE": 0, "CLASSIFICATION_TYPE": "U", "NORAD_CAT_ID": 36743, "ELEMENT_SET_NO": 999, "REV_AT_EPOCH": 60655, "BSTAR": 0.0020129322, "MEAN_MOTION_DOT": 5.118e-05, "MEAN_MOTION_DDOT": 0}, "tle": {"line1": "1 36743U 99025EBR 25340.97501403  .00005118  00000+0  20129-2 0  9991", "line2": "2 36743  98.6555  29.2835 0047684  30.1026 330.2881 14.29041368606558"}}, "geometry": {"type": "Point", "coordinates": [35.67350505388666, -21.30565876615849]}}, {"type": "Feature", "properties": {"norad_id": 36986, "name": "FENGYUN 1C DEB", "group": "fengyun-1c-debris", "lat": 76.80339480165681, "lon": 6.53553569349293, "alt_km": 898.4211385297294, "timestamp": "2025-12-09T23:33:24.144001+00:00", "meta": {"OBJECT_NAME": "FENGYUN 1C DEB", "OBJECT_ID": "1999-025EBS", "EPOCH": "2025-12-08T03:02:04.297632", "MEAN_MOTION": 14.1452558, "ECCENTRICITY": 0.00872891, "INCLINATION": 99.1431, "RA_OF_ASC_NODE": 48.0152, "ARG_OF_PERICENTER": 254.5991, "MEAN_ANOMALY": 104.5525, "EPHEMERIS_TYPE": 0, "CLASSIFICATION_TYPE": "U", "NORAD_CAT_ID": 36986, "ELEMENT_SET_NO": 999, "REV_AT_EPOCH": 81679, "BSTAR": 0.0028814321, "MEAN_MOTION_DOT": 5.691e-05, "MEAN_MOTION_DDOT": 0}, "tle": {"line1": "1 36986U 99025EBS 25342.12643863  .00005691  00000+0  28814-2 0  9991", "line2": "2 36986  99.1431  48.0152 0087289 254.5991 104.5525 14.14525580816798"}}, "geometry": {"type": "Point", "coordinates": [6.53553569349293, 76.80339480165681]}}, {"type": "Feature", "properties": {"norad_id": 36987, "name": "FENGYUN 1C DEB", "group": "fengyun-1c-debris", "lat": -54.154211676521385, "lon": -120.11819906685484, "alt_km": 1165.0566455506623, "timestamp": "2025-12-09T23:33:24.144012+00:00", "meta": {"OBJECT_NAME": "FENGYUN 1C DEB", "OBJECT_ID": "1999-025EBT", "EPOCH": "2025-12-09T09:33:25.232544", "MEAN_MOTION": 13.45867945, "ECCENTRICITY": 0.03197621, "INCLINATION": 100.8194, "RA_OF_ASC_NODE": 223.9038, "ARG_OF_PERICENTER": 54.7967, "MEAN_ANOMALY": 308.2662, "EPHEMERIS_TYPE": 0, "CLASSIFICATION_TYPE": "U", "NORAD_CAT_ID": 36987, "ELEMENT_SET_NO": 999, "REV_AT_EPOCH": 60832, "BSTAR": 0.0018153956, "MEAN_MOTION_DOT": 1.425e-05, "MEAN_MOTION_DDOT": 0}, "tle": {"line1": "1 36987U 99025EBT 25343.39820871  .00001425  00000+0  18154-2 0  9995", "line2": "2 36987 100.8194 223.9038 0319762  54.7967 308.2662 13.45867945608329"}}, "geometry": {"type": "Point", "coordinates": [-120.11819906685484, -54.154211676521385]}}, {"type": "Feature", "properties": {"norad_id": 36990, "name": "FENGYUN 1C DEB", "group": "fengyun-1c-debris", "lat": 31.79828139765581, "lon": -70.70081793069365, "alt_km": 827.6589468914208, "timestamp": "2025-12-09T23:33:24.144022+00:00", "meta": {"OBJECT_NAME": "FENGYUN 1C DEB", "OBJECT_ID": "1999-025EBW", "EPOCH": "2025-12-05T02:36:38.289600", "MEAN_MOTION": 13.56914719, "ECCENTRICITY": 0.0292772, "INCLINATION": 96.5839, "RA_OF_ASC_NODE": 290.134, "ARG_OF_PERICENTER": 44.0413, "MEAN_ANOMALY": 318.3658, "EPHEMERIS_TYPE": 0, "CLASSIFICATION_TYPE": "U", "NORAD_CAT_ID": 36990, "ELEMENT_SET_NO": 999, "REV_AT_EPOCH": 82784, "BSTAR": 0.0013157618, "MEAN_MOTION_DOT": 1.212e-05, "MEAN_MOTION_DDOT": 0}, "tle": {"line1": "1 36990U 99025EBW 25339.10877650  .00001212  00000+0  13158-2 0  9993", "line2": "2 36990  96.5839 290.1340 0292772  44.0413 318.3658 13.56914719827842"}}, "geometry": {"type": "Point", "coordinates": [-70.70081793069365, 31.79828139765581]}}, {"type": "Feature", "properties": {"norad_id": 36994, "name": "FENGYUN 1C DEB", "group": "fengyun-1c-debris", "lat": -35.03109756411749, "lon": 120.30476228346619, "alt_km": 924.4607188052323, "timestamp": "2025-12-09T23:33:24.144032+00:00", "meta": {"OBJECT_NAME": "FENGYUN 1C DEB", "OBJECT_ID": "1999-025ECA", "EPOCH": "2025-12-08T03:20:52.745568", "MEAN_MOTION": 13.9078309, "ECCENTRICITY": 0.01147715, "INCLINATION": 98.6425, "RA_OF_ASC_NODE": 304.711, "ARG_OF_PERICENTER": 305.9095, "MEAN_ANOMALY": 53.1456, "EPHEMERIS_TYPE": 0, "CLASSIFICATION_TYPE": "U", "NORAD_CAT_ID": 36994, "ELEMENT_SET_NO": 999, "REV_AT_EPOCH": 80843, "BSTAR": 0.0002375941, "MEAN_MOTION_DOT": 2.72e-06, "MEAN_MOTION_DDOT": 0}, "tle": {"line1": "1 36994U 99025ECA 25342.13949937  .00000272  00000+0  23759-3 0  9996", "line2": "2 36994  98.6425 304.7110 0114771 305.9095  53.1456 13.90783090808432"}}, "geometry": {"type": "Point", "coordinates": [120.30476228346619, -35.03109756411749]}}, {"type": "Feature", "properties": {"norad_id": 36995, "name": "FENGYUN 1C DEB", "group": "fengyun-1c-debris", "lat": -18.18761208352399, "lon": -134.3282581576689, "alt_km": 855.8972898056472, "timestamp": "2025-12-09T23:33:24.144043+00:00", "meta": {"OBJECT_NAME": "FENGYUN 1C DEB", "OBJECT_ID": "1999-025ECB", "EPOCH": "2025-12-08T10:02:19.805856", "MEAN_MOTION": 14.04866469, "ECCENTRICITY": 0.00387684, "INCLINATION": 98.3436, "RA_OF_ASC_NODE": 221.4704, "ARG_OF_PERICENTER": 323.8393, "MEAN_ANOMALY": 36.0156, "EPHEMERIS_TYPE": 0, "CLASSIFICATION_TYPE": "U", "NORAD_CAT_ID": 36995, "ELEMENT_SET_NO": 999, "REV_AT_EPOCH": 63496, "BSTAR": 2.3580985e-05, "MEAN_MOTION_DOT": -1e-08, "MEAN_MOTION_DDOT": 0}, "tle": {"line1": "1 36995U 99025ECB 25342.41828479 -.00000001  00000+0  23581-4 0  9990", "line2": "2 36995  98.3436 221.4704 0038768 323.8393  36.0156 14.04866469634967"}}, "geometry": {"type": "Point", "coordinates": [-134.3282581576689, -18.18761208352399]}}, {"type": "Feature", "properties": {"norad_id": 36996, "name": "FENGYUN 1C DEB", "group": "fengyun-1c-debris", "lat": 25.228700853628222, "lon": 132.5317283042569, "alt_km": 690.0587000949618, "timestamp": "2025-12-09T23:33:24.144053+00:00", "meta": {"OBJECT_NAME": "FENGYUN 1C DEB", "OBJECT_ID": "1999-025ECC", "EPOCH": "2025-11-27T05:46:51.154176", "MEAN_MOTION": 14.11461211, "ECCENTRICITY": 0.02552856, "INCLINATION": 98.2247, "RA_OF_ASC_NODE": 124.7451, "ARG_OF_PERICENTER": 33.8599, "MEAN_ANOMALY": 87.2847, "EPHEMERIS_TYPE": 0, "CLASSIFICATION_TYPE": "U", "NORAD_CAT_ID": 36996, "ELEMENT_SET_NO": 999, "REV_AT_EPOCH": 59473, "BSTAR": 0.00085126792, "MEAN_MOTION_DOT": 2.056e-05, "MEAN_MOTION_DDOT": 0}, "tle": {"line1": "1 36996U 99025ECC 25331.24086984  .00002056  00000+0  85127-3 0  9991", "line2": "2 36996  98.2247 124.7451 0255285  33.8599  87.2847 14.11461211594731"}}, "geometry": {"type": "Point", "coordinates": [132.5317283042569, 25.228700853628222]}}]}